[{"OBJECT_NAME":"FLOCK 4BE-35","OBJECT_ID":"2024-149CU","EPOCH":"2026-03-09T17:00:17.007552","MEAN_MOTION":15.4368021,"ECCENTRICITY":0.00049864,"INCLINATION":97.3783,"RA_OF_ASC_NODE":151.9546,"ARG_OF_PERICENTER":261.1421,"MEAN_ANOMALY":98.9263,"EPHEMERIS_TYPE":0,"CLASSIFICATION_TYPE":"U","NORAD_CAT_ID":60558,"ELEMENT_SET_NO":999,"REV_AT_EPOCH":8700,"BSTAR":0.0020282071,"MEAN_MOTION_DOT":0.00092363,"MEAN_MOTION_DDOT":0},{"OBJECT_NAME":"STARLINK-34003","OBJECT_ID":"2025-094U","EPOCH":"2026-03-09T17:01:34.865184","MEAN_MOTION":15.42711308,"ECCENTRICITY":0.00038112,"INCLINATION":70.0011,"RA_OF_ASC_NODE":205.2375,"ARG_OF_PERICENTER":288.4816,"MEAN_ANOMALY":71.5951,"EPHEMERIS_TYPE":0,"CLASSIFICATION_TYPE":"U","NORAD_CAT_ID":63882,"ELEMENT_SET_NO":999,"REV_AT_EPOCH":4793,"BSTAR":0.0018682176,"MEAN_MOTION_DOT":0.00082547,"MEAN_MOTION_DDOT":0}]
